OBJECT_NAME,OBJECT_ID,EPOCH,MEAN_MOTION,ECCENTRICITY,INCLINATION,RA_OF_ASC_NODE,ARG_OF_PERICENTER,MEAN_ANOMALY,EPHEMERIS_TYPE,CLASSIFICATION_TYPE,NORAD_CAT_ID,ELEMENT_SET_NO,REV_AT_EPOCH,BSTAR,MEAN_MOTION_DOT,MEAN_MOTION_DDOT
STARLINK-31845,2024-118S,2026-06-04T17:37:10.396704,15.30185826,.0001121,53.1617,340.2453,137.5302,222.5785,0,U,60129,999,10905,-.40602E-4,-.1561E-4,0
STARLINK-31838,2024-118T,2026-06-05T19:35:30.084288,15.31698951,.00011402,53.1604,337.0487,101.3016,258.8114,0,U,60130,999,10919,.1677183E-5,-.313E-5,0
STARLINK-31785,2024-118U,2026-06-06T04:00:03.998880,15.31709057,.0001134,53.1591,335.2663,96.1075,114.4564,0,U,60131,999,585,.1756E-3,.5089E-4,0
STARLINK-31792,2024-118V,2026-06-05T05:45:16.917696,15.30200545,.0000911,53.1614,337.6743,67.0345,293.0751,0,U,60132,999,10913,.59911E-4,.1416E-4,0
STARLINK-32043,2024-120A,2026-06-06T04:00:03.998880,15.33535976,.0001456,53.1600,268.8571,71.8868,295.1622,0,U,60135,999,590,.30135E-2,.100024E-2,0
STARLINK-32112,2024-120B,2026-06-05T14:00:34.386912,15.34383324,.00013727,53.1620,271.6380,75.1137,285.0017,0,U,60136,999,10991,.598799E-5,-.174E-5,0
STARLINK-32050,2024-120C,2026-06-05T12:08:35.908224,15.34382960,.00010652,53.1611,271.8574,101.8575,258.2547,0,U,60137,999,10982,-.5837751E-5,-.573E-5,0
STARLINK-32025,2024-120D,2026-06-05T19:18:09.041184,15.34416401,.00011444,53.1615,270.1637,103.4814,256.6316,0,U,60138,999,10987,.77088555E-4,.223E-4,0
STARLINK-31694,2024-120F,2026-06-06T04:00:03.998880,15.34383618,.0001339,53.1599,268.9780,90.1076,217.1752,0,U,60140,999,590,.25267E-2,.8593E-3,0
STARLINK-32036,2024-120G,2026-06-05T11:11:08.680416,15.34487155,.00010384,53.1589,272.3220,8.6460,351.4560,0,U,60141,999,10989,.13002515E-2,.43935E-3,0
STARLINK-32031,2024-120H,2026-06-05T14:33:45.871488,15.34388034,.00011134,53.1614,271.0650,74.3804,285.7321,0,U,60142,999,10992,-.2241488E-5,-.452E-5,0
STARLINK-32027,2024-120J,2026-06-05T19:21:10.672992,15.34190133,.00014958,53.1606,270.1377,49.0867,311.0265,0,U,60143,999,10995,.16184476E-2,.54338E-3,0
STARLINK-32033,2024-120K,2026-06-05T12:09:30.799872,15.30183211,.00010434,53.1606,271.8661,95.6250,264.4869,0,U,60144,999,10982,-.26223469E-4,-.1135E-4,0
STARLINK-32029,2024-120L,2026-06-05T11:47:23.484192,15.34382747,.00011156,53.1613,271.7664,88.2061,271.9069,0,U,60145,999,10982,-.6458393E-5,-.594E-5,0
STARLINK-32127,2024-120M,2026-06-06T04:00:03.998880,15.34334121,.000103,53.1583,268.5629,90.6515,66.0751,0,U,60146,999,590,.19179E-2,.64848E-3,0
STARLINK-32019,2024-120N,2026-06-05T19:33:22.863744,15.34354059,.00009271,53.1583,270.2312,104.7105,255.4001,0,U,60147,999,10987,.25126766E-2,.85364E-3,0
STARLINK-32021,2024-120P,2026-06-05T13:19:06.885984,15.31702308,.00010961,53.1606,261.5021,79.3260,280.7865,0,U,60148,999,11005,-.37834532E-4,-.1539E-4,0
STARLINK-32022,2024-120Q,2026-06-06T04:00:03.998880,15.34376730,.000099,53.1596,268.8119,81.7142,307.0566,0,U,60149,999,590,.28919E-2,.98547E-3,0
STARLINK-32014,2024-120R,2026-06-05T12:12:34.406784,15.30176173,.00012451,53.1612,271.8708,80.9025,279.2116,0,U,60150,999,10982,-.44210676E-4,-.1667E-4,0
STARLINK-32004,2024-120S,2026-06-05T13:51:09.889056,15.30186046,.0001176,53.1607,271.5873,76.9843,283.1289,0,U,60151,999,10991,-.74991878E-4,-.2578E-4,0
STARLINK-32147,2024-120T,2026-06-05T13:51:28.828800,15.34390203,.00010984,53.1617,271.5950,96.9726,263.1401,0,U,60152,999,10983,-.29919865E-4,-.1386E-4,0
STARLINK-32131,2024-120U,2026-06-05T14:45:52.829856,15.34407312,.00019971,53.1620,271.1119,66.9981,293.1232,0,U,60153,999,10992,-.17465593E-3,-.6275E-4,0
STARLINK-32145,2024-120V,2026-06-06T04:00:03.998880,15.34425505,.0001523,53.1583,268.5140,102.5516,77.3857,0,U,60154,999,591,-.1322E-2,-.44815E-3,0
STARLINK-32137,2024-120W,2026-06-05T12:05:34.185696,15.34386445,.00011337,53.1616,271.8436,85.1059,275.0073,0,U,60155,999,10982,-.25623065E-4,-.1241E-4,0
STARLINK-32048,2024-120X,2026-06-05T11:56:27.992544,15.34370307,.00008684,53.1623,271.8004,97.8574,262.2527,0,U,60156,999,10982,.9880842E-4,.2961E-4,0
STARLINK-32129,2024-120Y,2026-06-05T19:48:29.867616,15.34315145,.00012218,53.1607,270.2969,93.9015,266.2127,0,U,60157,999,10995,-.10137112E-2,-.34378E-3,0
STARLINK-11168 [DTC],2024-124A,2026-06-05T13:02:38.840640,15.69703616,.00009796,53.1577,88.0860,136.7218,223.3877,0,U,60183,999,11152,.383025E-5,-.124E-5,0
STARLINK-11187 [DTC],2024-124B,2026-06-05T12:55:34.854240,15.69677784,.00010811,53.1587,88.0580,73.1497,286.9639,0,U,60184,999,11033,.45559183E-4,.4927E-4,0
STARLINK-11180 [DTC],2024-124C,2026-06-05T12:48:31.455360,15.69702706,.00008795,53.1586,88.0237,83.7371,276.3747,0,U,60185,999,11033,.747749E-5,.317E-5,0
STARLINK-11197 [DTC],2024-124D,2026-06-05T12:41:28.029696,15.69694159,.00009894,53.1586,87.9908,88.7064,271.4067,0,U,60186,999,11033,.10200279E-4,.647E-5,0
