[ {"name": "STARLINK-31845", "line1": "1 60129U 24118S   26155.73414811 -.00001561  00000+0 -40602-4 0  9992", "line2": "2 60129  53.1617 340.2453 0001121 137.5302 222.5785 15.30185826109055"}, {"name": "STARLINK-31838", "line1": "1 60130U 24118T   26156.81632042 -.00000313  00000+0  16772-5 0  9997", "line2": "2 60130  53.1604 337.0487 0001140 101.3016 258.8114 15.31698951109198"}, {"name": "STARLINK-31785", "line1": "1 60131U 24118U   26157.16671295  .00005089  00000+0  17560-3 0  9998", "line2": "2 60131  53.1591 335.2663 0001134  96.1075 114.4564 15.31709057  5853"}, {"name": "STARLINK-31792", "line1": "1 60132U 24118V   26156.23977914  .00001416  00000+0  59911-4 0  9990", "line2": "2 60132  53.1614 337.6743 0000911  67.0345 293.0751 15.30200545109139"}, {"name": "STARLINK-32043", "line1": "1 60135U 24120A   26157.16671295  .00100024  00000+0  30135-2 0  9992", "line2": "2 60135  53.1600 268.8571 0001456  71.8868 295.1622 15.33535976  5901"}, {"name": "STARLINK-32112", "line1": "1 60136U 24120B   26156.58373133 -.00000174  00000+0  59880-5 0  9995", "line2": "2 60136  53.1620 271.6380 0001372  75.1137 285.0017 15.34383324109918"}, {"name": "STARLINK-32050", "line1": "1 60137U 24120C   26156.50597116 -.00000573  00000+0 -58378-5 0  9992", "line2": "2 60137  53.1611 271.8574 0001065 101.8575 258.2547 15.34382960109823"}, {"name": "STARLINK-32025", "line1": "1 60138U 24120D   26156.80427131  .00002230  00000+0  77089-4 0  9994", "line2": "2 60138  53.1615 270.1637 0001144 103.4814 256.6316 15.34416401109871"}, {"name": "STARLINK-31694", "line1": "1 60140U 24120F   26157.16671295  .00085930  00000+0  25267-2 0  9996", "line2": "2 60140  53.1599 268.9780 0001339  90.1076 217.1752 15.34383618  5905"}, {"name": "STARLINK-32036", "line1": "1 60141U 24120G   26156.46607269  .00043935  00000+0  13003-2 0  9993", "line2": "2 60141  53.1589 272.3220 0001038   8.6460 351.4560 15.34487155109893"}, {"name": "STARLINK-32031", "line1": "1 60142U 24120H   26156.60678092 -.00000452  00000+0 -22415-5 0  9991", "line2": "2 60142  53.1614 271.0650 0001113  74.3804 285.7321 15.34388034109926"}, {"name": "STARLINK-32027", "line1": "1 60143U 24120J   26156.80637353  .00054338  00000+0  16184-2 0  9992", "line2": "2 60143  53.1606 270.1377 0001495  49.0867 311.0265 15.34190133109959"}, {"name": "STARLINK-32033", "line1": "1 60144U 24120K   26156.50660648 -.00001135  00000+0 -26223-4 0  9999", "line2": "2 60144  53.1606 271.8661 0001043  95.6250 264.4869 15.30183211109828"}, {"name": "STARLINK-32029", "line1": "1 60145U 24120L   26156.49124403 -.00000594  00000+0 -64584-5 0  9993", "line2": "2 60145  53.1613 271.7664 0001115  88.2061 271.9069 15.34382747109821"}, {"name": "STARLINK-32127", "line1": "1 60146U 24120M   26157.16671295  .00064848  00000+0  19179-2 0  9992", "line2": "2 60146  53.1583 268.5629 0001030  90.6515  66.0751 15.34334121  5908"}, {"name": "STARLINK-32019", "line1": "1 60147U 24120N   26156.81484796  .00085364  00000+0  25127-2 0  9998", "line2": "2 60147  53.1583 270.2312 0000927 104.7105 255.4001 15.34354059109879"}, {"name": "STARLINK-32021", "line1": "1 60148U 24120P   26156.55494081 -.00001539  00000+0 -37835-4 0  9993", "line2": "2 60148  53.1606 261.5021 0001096  79.3260 280.7865 15.31702308110055"}, {"name": "STARLINK-32022", "line1": "1 60149U 24120Q   26157.16671295  .00098547  00000+0  28919-2 0  9990", "line2": "2 60149  53.1596 268.8119 0000990  81.7142 307.0566 15.34376730  5907"}, {"name": "STARLINK-32014", "line1": "1 60150U 24120R   26156.50873156 -.00001667  00000+0 -44211-4 0  9993", "line2": "2 60150  53.1612 271.8708 0001245  80.9025 279.2116 15.30176173109823"}, {"name": "STARLINK-32004", "line1": "1 60151U 24120S   26156.57719779 -.00002578  00000+0 -74992-4 0  9992", "line2": "2 60151  53.1607 271.5873 0001176  76.9843 283.1289 15.30186046109919"}, {"name": "STARLINK-32147", "line1": "1 60152U 24120T   26156.57741700 -.00001386  00000+0 -29920-4 0  9999", "line2": "2 60152  53.1617 271.5950 0001098  96.9726 263.1401 15.34390203109833"}, {"name": "STARLINK-32131", "line1": "1 60153U 24120U   26156.61519479 -.00006275  00000+0 -17466-3 0  9994", "line2": "2 60153  53.1620 271.1119 0001997  66.9981 293.1232 15.34407312109924"}, {"name": "STARLINK-32145", "line1": "1 60154U 24120V   26157.16671295 -.00044815  00000+0 -13220-2 0  9996", "line2": "2 60154  53.1583 268.5140 0001523 102.5516  77.3857 15.34425505  5916"}, {"name": "STARLINK-32137", "line1": "1 60155U 24120W   26156.50386789 -.00001241  00000+0 -25623-4 0  9993", "line2": "2 60155  53.1616 271.8436 0001133  85.1059 275.0073 15.34386445109825"}, {"name": "STARLINK-32048", "line1": "1 60156U 24120X   26156.49754621  .00002961  00000+0  98808-4 0  9999", "line2": "2 60156  53.1623 271.8004 0000868  97.8574 262.2527 15.34370307109823"}, {"name": "STARLINK-32129", "line1": "1 60157U 24120Y   26156.82534569 -.00034378  00000+0 -10137-2 0  9990", "line2": "2 60157  53.1607 270.2969 0001221  93.9015 266.2127 15.34315145109953"}, {"name": "STARLINK-11168 [DTC]", "line1": "1 60183U 24124A   26156.54350510 -.00000124  00000+0  38303-5 0  9993", "line2": "2 60183  53.1577  88.0860 0000979 136.7218 223.3877 15.69703616111527"}, {"name": "STARLINK-11187 [DTC]", "line1": "1 60184U 24124B   26156.53859785  .00004927  00000+0  45559-4 0  9995", "line2": "2 60184  53.1587  88.0580 0001081  73.1497 286.9639 15.69677784110331"}, {"name": "STARLINK-11180 [DTC]", "line1": "1 60185U 24124C   26156.53369740  .00000317  00000+0  74775-5 0  9995", "line2": "2 60185  53.1586  88.0237 0000879  83.7371 276.3747 15.69702706110338"}, {"name": "STARLINK-11197 [DTC]", "line1": "1 60186U 24124D   26156.52879664  .00000647  00000+0  10200-4 0  9994", "line2": "2 60186  53.1586  87.9908 0000989  88.7064 271.4067 15.69694159110331"}]